OBJECT_NAME,OBJECT_ID,EPOCH,MEAN_MOTION,ECCENTRICITY,INCLINATION,RA_OF_ASC_NODE,ARG_OF_PERICENTER,MEAN_ANOMALY,EPHEMERIS_TYPE,CLASSIFICATION_TYPE,NORAD_CAT_ID,ELEMENT_SET_NO,REV_AT_EPOCH,BSTAR,MEAN_MOTION_DOT,MEAN_MOTION_DDOT
EMISAT,2019-018A,2026-05-09T22:56:18.960864,14.43668298,.00179816,98.4664,188.9599,336.8889,23.1491,0,U,44078,999,37454,-.23197306E-4,-.123E-5,0
JILIN-1 GAOFEN 3A,2019-032C,2026-05-09T22:40:18.968736,15.31816386,.00031428,44.9745,207.2661,76.3588,283.7646,0,U,44312,999,38197,.27406905E-3,.8284E-4,0
PROX-1,2019-036A,2026-05-09T18:05:39.196032,14.89711716,.00064458,23.9966,10.7879,308.2442,51.7477,0,U,44339,999,36773,.92433381E-3,.9355E-4,0
NPSAT1,2019-036B,2026-05-09T14:34:18.034752,14.74222858,.00082374,23.9979,108.9485,134.3037,225.8135,0,U,44340,999,36679,.54655302E-3,.394E-4,0
FORMOSAT 7-3,2019-036E,2026-05-09T23:32:11.914944,15.09511347,.00008523,23.9985,81.4348,160.4536,199.6000,0,U,44343,999,37746,.18210773E-3,.3341E-4,0
FORMOSAT 7-1,2019-036L,2026-05-09T20:07:27.876576,14.96348269,.0001129,23.9984,290.8970,84.5380,275.5250,0,U,44349,999,37890,.15300536E-3,.2076E-4,0
FORMOSAT 7-4,2019-036M,2026-05-09T22:15:40.242240,14.96341833,.00013545,23.9998,352.3985,99.2520,260.8134,0,U,44350,999,37833,.15274444E-3,.2073E-4,0
FORMOSAT 7-2,2019-036N,2026-05-09T21:11:49.337952,14.96338472,.00008912,23.9988,47.0104,102.8987,257.1613,0,U,44351,999,37784,.1407739E-3,.1934E-4,0
FORMOSAT 7-6,2019-036Q,2026-05-09T22:47:47.541984,14.96351899,.0001309,23.9971,227.3828,31.9772,328.0808,0,U,44353,999,37608,.13749193E-3,.1896E-4,0
FORMOSAT 7-5,2019-036V,2026-05-09T19:03:07.148736,14.96349682,.00007383,23.9970,167.1836,95.7774,264.2811,0,U,44358,999,37659,.13360938E-3,.1851E-4,0
METEOR-M2 2,2019-038A,2026-05-09T23:02:55.396896,14.24354568,.0002211,98.9142,116.6857,107.5462,252.5958,0,U,44387,999,35585,-.39544503E-4,-.137E-5,0
GLOBAL-4,2019-054E,2026-05-09T06:29:26.601792,15.60793607,.0003723,45.0059,100.3031,71.6185,288.5116,0,U,44499,999,37427,.45803278E-3,.38915E-3,0
ZY-1 02D,2019-059A,2026-05-09T22:34:50.289312,14.35447263,.00006382,98.3204,192.7754,165.7479,194.3725,0,U,44528,999,34885,-.3914517E-4,-.154E-5,0
TAURUS-1 (JINNIUZUO 1),2019-059C,2026-05-09T23:16:11.407872,14.71683702,.0009562,98.6394,292.4462,76.5246,283.7024,0,U,44530,999,35302,.62886054E-3,.3867E-4,0
ZHUHAI-1 03B,2019-060C,2026-05-09T23:21:39.395232,15.51992595,.0009993,97.5489,285.7534,99.6371,260.6011,0,U,44536,999,37039,.36375727E-3,.21849E-3,0
ZHUHAI-1 03C,2019-060D,2026-05-09T22:58:41.253888,15.93040237,.00039322,97.5503,298.0843,331.4871,28.6188,0,U,44537,999,37115,.76148818E-3,.263996E-2,.28570218E-4
ZHUHAI-1 03D,2019-060E,2026-05-09T23:18:12.298752,15.47619787,.00084778,97.5348,278.2087,87.4785,272.7436,0,U,44538,999,37016,.4079018E-3,.20998E-3,0
ZHUHAI-1 03E,2019-060F,2026-05-09T23:34:03.124704,15.39824942,.00068233,97.5567,278.6553,151.2633,208.8990,0,U,44539,999,36988,.31608499E-3,.12466E-3,0
GAOFEN-7,2019-072A,2026-05-09T23:40:51.542688,15.21304619,.00170554,97.2449,192.8849,164.3801,195.7965,0,U,44703,999,36183,.12864604E-3,.2821E-4,0
JILIN-1 GAOFEN 2A,2019-075A,2026-05-09T23:06:23.194080,15.38282274,.00059916,97.4958,212.8926,206.9379,153.1556,0,U,44777,999,35900,.2678449E-3,.10026E-3,0
NINGXIA-1 1,2019-076A,2026-05-09T23:41:41.284032,14.02034800,.00115023,45.0073,350.5597,334.4824,25.5441,0,U,44779,999,33249,.60617797E-4,-.37E-6,0
NINGXIA-1 5,2019-076E,2026-05-09T22:20:06.285120,14.02081703,.00114717,45.0074,350.1698,324.6933,35.3141,0,U,44783,999,33240,-.9083955E-4,-.27E-5,0
KL-ALPHA A,2019-077A,2026-05-09T23:19:16.251168,13.56038487,.00099395,88.9254,226.7398,210.7848,149.2725,0,U,44785,999,32055,-.10028272E-4,.5E-7,0
CARTOSAT-3,2019-081A,2026-05-09T22:56:55.895136,15.19183171,.00110319,97.4326,192.4314,287.3384,72.6644,0,U,44804,999,35766,.5944615E-4,.1183E-4,0
JILIN-1 GAOFEN 2B,2019-086A,2026-05-09T21:52:06.851424,15.20273307,.00157807,97.4890,202.1531,94.3222,265.9817,0,U,44836,999,35467,.19676192E-3,.4215E-4,0
TIANQIN 1 (CAS-6),2019-093A,2026-05-09T22:43:43.754016,14.95246134,.0011189,97.7795,214.0705,174.0612,186.0744,0,U,44879,999,34633,.10199762E-3,.1065E-4,0
ETRSS-1,2019-093B,2026-05-09T23:08:50.695296,14.95645946,.00116174,97.7801,214.5142,175.4144,184.7185,0,U,44880,999,34634,.17030401E-3,.1837E-4,0
