EMISAT                  
1 44078U 19018A   26129.95577501 -.00000123  00000+0 -23197-4 0  9994
2 44078  98.4664 188.9599 0017981 336.8889  23.1491 14.43668298374546
JILIN-1 GAOFEN 3A       
1 44312U 19032C   26129.94466399  .00008284  00000+0  27407-3 0  9993
2 44312  44.9745 207.2661 0003142  76.3588 283.7646 15.31816386381976
PROX-1                  
1 44339U 19036A   26129.75392588  .00009355  00000+0  92433-3 0  9994
2 44339  23.9966  10.7879 0006445 308.2442  51.7477 14.89711716367736
NPSAT1                  
1 44340U 19036B   26129.60715318  .00003940  00000+0  54655-3 0  9998
2 44340  23.9979 108.9485 0008237 134.3037 225.8135 14.74222858366792
FORMOSAT 7-3            
1 44343U 19036E   26129.98069346  .00003341  00000+0  18211-3 0  9998
2 44343  23.9985  81.4348 0000852 160.4536 199.6000 15.09511347377462
FORMOSAT 7-1            
1 44349U 19036L   26129.83851709  .00002076  00000+0  15301-3 0  9991
2 44349  23.9984 290.8970 0001129  84.5380 275.5250 14.96348269378902
FORMOSAT 7-4            
1 44350U 19036M   26129.92754910  .00002073  00000+0  15274-3 0  9995
2 44350  23.9998 352.3985 0001354  99.2520 260.8134 14.96341833378333
FORMOSAT 7-2            
1 44351U 19036N   26129.88320993  .00001934  00000+0  14077-3 0  9996
2 44351  23.9988  47.0104 0000891 102.8987 257.1613 14.96338472377848
FORMOSAT 7-6            
1 44353U 19036Q   26129.94985581  .00001896  00000+0  13749-3 0  9997
2 44353  23.9971 227.3828 0001309  31.9772 328.0808 14.96351899376084
FORMOSAT 7-5            
1 44358U 19036V   26129.79383274  .00001851  00000+0  13361-3 0  9997
2 44358  23.9970 167.1836 0000738  95.7774 264.2811 14.96349682376591
METEOR-M2 2             
1 44387U 19038A   26129.96036339 -.00000137  00000+0 -39545-4 0  9998
2 44387  98.9142 116.6857 0002211 107.5462 252.5958 14.24354568355850
GLOBAL-4                
1 44499U 19054E   26129.27044678  .00038915  00000+0  45803-3 0  9995
2 44499  45.0059 100.3031 0003723  71.6185 288.5116 15.60793607374274
ZY-1 02D                
1 44528U 19059A   26129.94085983 -.00000154  00000+0 -39145-4 0  9990
2 44528  98.3204 192.7754 0000638 165.7479 194.3725 14.35447263348850
TAURUS-1 (JINNIUZUO 1)  
1 44530U 19059C   26129.96957648  .00003867  00000+0  62886-3 0  9990
2 44530  98.6394 292.4462 0009562  76.5246 283.7024 14.71683702353026
ZHUHAI-1 03B            
1 44536U 19060C   26129.97337263  .00021849  00000+0  36376-3 0  9999
2 44536  97.5489 285.7534 0009993  99.6371 260.6011 15.51992595370394
ZHUHAI-1 03C            
1 44537U 19060D   26129.95742192  .00263996  28570-4  76149-3 0  9999
2 44537  97.5503 298.0843 0003932 331.4871  28.6188 15.93040237371156
ZHUHAI-1 03D            
1 44538U 19060E   26129.97097568  .00020998  00000+0  40790-3 0  9991
2 44538  97.5348 278.2087 0008477  87.4785 272.7436 15.47619787370164
ZHUHAI-1 03E            
1 44539U 19060F   26129.98198061  .00012466  00000+0  31608-3 0  9992
2 44539  97.5567 278.6553 0006823 151.2633 208.8990 15.39824942369889
GAOFEN-7                
1 44703U 19072A   26129.98670767  .00002821  00000+0  12865-3 0  9994
2 44703  97.2449 192.8849 0017055 164.3801 195.7965 15.21304619361832
JILIN-1 GAOFEN 2A       
1 44777U 19075A   26129.96276845  .00010026  00000+0  26784-3 0  9996
2 44777  97.4958 212.8926 0005991 206.9379 153.1556 15.38282274359008
NINGXIA-1 1             
1 44779U 19076A   26129.98728338 -.00000037  00000+0  60618-4 0  9997
2 44779  45.0073 350.5597 0011502 334.4824  25.5441 14.02034800332497
NINGXIA-1 5             
1 44783U 19076E   26129.93062830 -.00000270  00000+0 -90840-4 0  9995
2 44783  45.0074 350.1698 0011471 324.6933  35.3141 14.02081703332409
KL-ALPHA A              
1 44785U 19077A   26129.97171587  .00000005  00000+0 -10028-4 0  9997
2 44785  88.9254 226.7398 0009939 210.7848 149.2725 13.56038487320553
CARTOSAT-3              
1 44804U 19081A   26129.95620249  .00001183  00000+0  59446-4 0  9990
2 44804  97.4326 192.4314 0011031 287.3384  72.6644 15.19183171357661
JILIN-1 GAOFEN 2B       
1 44836U 19086A   26129.91119041  .00004215  00000+0  19676-3 0  9998
2 44836  97.4890 202.1531 0015780  94.3222 265.9817 15.20273307354674
TIANQIN 1 (CAS-6)       
1 44879U 19093A   26129.94703419  .00001065  00000+0  10200-3 0  9998
2 44879  97.7795 214.0705 0011189 174.0612 186.0744 14.95246134346336
ETRSS-1                 
1 44880U 19093B   26129.96447564  .00001837  00000+0  17030-3 0  9993
2 44880  97.7801 214.5142 0011617 175.4144 184.7185 14.95645946346346
